{
  "type": "FeatureCollection",
  "features": [
    {
      "type": "Feature",
      "properties": {
        "norad_id": 66544,
        "name": "STARLINK-35728",
        "group": "last-30-days",
        "lat": -15.377902911690962,
        "lon": -63.10892113553796,
        "alt_km": 355.1774174153161,
        "timestamp": "2025-12-04T23:34:04.491283+00:00",
        "meta_object_name": "STARLINK-35728",
        "meta_object_id": "2025-265AE",
        "meta_epoch": "2025-12-04T18:00:02.000160",
        "meta_mean_motion": 15.72747217,
        "meta_eccentricity": 0.0001256,
        "meta_inclination": 43.0002,
        "meta_ra_of_asc_node": 101.1266,
        "meta_arg_of_pericenter": 278.1157,
        "meta_mean_anomaly": 50.0961,
        "meta_ephemeris_type": 0,
        "meta_classification_type": "U",
        "meta_norad_cat_id": 66544,
        "meta_element_set_no": 999,
        "meta_rev_at_epoch": 371,
        "meta_bstar": -0.015052,
        "meta_mean_motion_dot": -0.01829293,
        "meta_mean_motion_ddot": 0,
        "tle_line1": "1 66544U 25265AE  25338.75002315 -.01829293  00000+0 -15052-1 0  9998",
        "tle_line2": "2 66544  43.0002 101.1266 0001256 278.1157  50.0961 15.72747217  3713"
      },
      "geometry": {
        "type": "Point",
        "coordinates": [
          -63.10892113553796,
          -15.377902911690962
        ]
      }
    },
    {
      "type": "Feature",
      "properties": {
        "norad_id": 66545,
        "name": "SHIJIAN-30A",
        "group": "last-30-days",
        "lat": 26.24590216251326,
        "lon": 32.0498877167794,
        "alt_km": 512.861536397214,
        "timestamp": "2025-12-04T23:34:04.491293+00:00",
        "meta_object_name": "SHIJIAN-30A",
        "meta_object_id": "2025-266A",
        "meta_epoch": "2025-12-04T17:05:12.098976",
        "meta_mean_motion": 15.15395635,
        "meta_eccentricity": 0.0012832,
        "meta_inclination": 51.7998,
        "meta_ra_of_asc_node": 10.4683,
        "meta_arg_of_pericenter": 328.04,
        "meta_mean_anomaly": 31.9797,
        "meta_ephemeris_type": 0,
        "meta_classification_type": "U",
        "meta_norad_cat_id": 66545,
        "meta_element_set_no": 999,
        "meta_rev_at_epoch": 236,
        "meta_bstar": 0.0011541,
        "meta_mean_motion_dot": 0.00021866,
        "meta_mean_motion_ddot": 0,
        "tle_line1": "1 66545U 25266A   25338.71194559  .00021866  00000+0  11541-2 0  9995",
        "tle_line2": "2 66545  51.7998  10.4683 0012832 328.0400  31.9797 15.15395635  2362"
      },
      "geometry": {
        "type": "Point",
        "coordinates": [
          32.0498877167794,
          26.24590216251326
        ]
      }
    },
    {
      "type": "Feature",
      "properties": {
        "norad_id": 66546,
        "name": "SHIJIAN-30B",
        "group": "last-30-days",
        "lat": 22.54734191447996,
        "lon": 28.295689569708284,
        "alt_km": 513.0183174754311,
        "timestamp": "2025-12-04T23:34:04.491303+00:00",
        "meta_object_name": "SHIJIAN-30B",
        "meta_object_id": "2025-266B",
        "meta_epoch": "2025-12-04T17:06:32.703264",
        "meta_mean_motion": 15.15466175,
        "meta_eccentricity": 0.00105,
        "meta_inclination": 51.7981,
        "meta_ra_of_asc_node": 10.4721,
        "meta_arg_of_pericenter": 331.0664,
        "meta_mean_anomaly": 28.9729,
        "meta_ephemeris_type": 0,
        "meta_classification_type": "U",
        "meta_norad_cat_id": 66546,
        "meta_element_set_no": 999,
        "meta_rev_at_epoch": 236,
        "meta_bstar": 0.0013161,
        "meta_mean_motion_dot": 0.00025025,
        "meta_mean_motion_ddot": 0,
        "tle_line1": "1 66546U 25266B   25338.71287851  .00025025  00000+0  13161-2 0  9995",
        "tle_line2": "2 66546  51.7981  10.4721 0010500 331.0664  28.9729 15.15466175  2363"
      },
      "geometry": {
        "type": "Point",
        "coordinates": [
          28.295689569708284,
          22.54734191447996
        ]
      }
    },
    {
      "type": "Feature",
      "properties": {
        "norad_id": 66547,
        "name": "SHIJIAN-30C",
        "group": "last-30-days",
        "lat": 19.596878204086504,
        "lon": 25.501407043751403,
        "alt_km": 513.5473630194947,
        "timestamp": "2025-12-04T23:34:04.491313+00:00",
        "meta_object_name": "SHIJIAN-30C",
        "meta_object_id": "2025-266C",
        "meta_epoch": "2025-12-04T17:07:35.369184",
        "meta_mean_motion": 15.15495105,
        "meta_eccentricity": 0.001136,
        "meta_inclination": 51.7993,
        "meta_ra_of_asc_node": 10.4772,
        "meta_arg_of_pericenter": 323.1622,
        "meta_mean_anomaly": 36.8573,
        "meta_ephemeris_type": 0,
        "meta_classification_type": "U",
        "meta_norad_cat_id": 66547,
        "meta_element_set_no": 999,
        "meta_rev_at_epoch": 236,
        "meta_bstar": 0.0012189,
        "meta_mean_motion_dot": 0.00023171,
        "meta_mean_motion_ddot": 0,
        "tle_line1": "1 66547U 25266C   25338.71360381  .00023171  00000+0  12189-2 0  9995",
        "tle_line2": "2 66547  51.7993  10.4772 0011360 323.1622  36.8573 15.15495105  2364"
      },
      "geometry": {
        "type": "Point",
        "coordinates": [
          25.501407043751403,
          19.596878204086504
        ]
      }
    },
    {
      "type": "Feature",
      "properties": {
        "norad_id": 66548,
        "name": "CZ-2C R/B",
        "group": "last-30-days",
        "lat": 41.46582392749849,
        "lon": 144.64261627198897,
        "alt_km": 417.3615032405669,
        "timestamp": "2025-12-04T23:34:04.491323+00:00",
        "meta_object_name": "CZ-2C R/B",
        "meta_object_id": "2025-266D",
        "meta_epoch": "2025-12-04T16:45:47.744928",
        "meta_mean_motion": 15.29913665,
        "meta_eccentricity": 0.0084589,
        "meta_inclination": 52.0558,
        "meta_ra_of_asc_node": 9.5833,
        "meta_arg_of_pericenter": 145.7041,
        "meta_mean_anomaly": 214.9448,
        "meta_ephemeris_type": 0,
        "meta_classification_type": "U",
        "meta_norad_cat_id": 66548,
        "meta_element_set_no": 999,
        "meta_rev_at_epoch": 238,
        "meta_bstar": 0.0007206,
        "meta_mean_motion_dot": 0.00023297,
        "meta_mean_motion_ddot": 0,
        "tle_line1": "1 66548U 25266D   25338.69846927  .00023297  00000+0  72060-3 0  9992",
        "tle_line2": "2 66548  52.0558   9.5833 0084589 145.7041 214.9448 15.29913665  2382"
      },
      "geometry": {
        "type": "Point",
        "coordinates": [
          144.64261627198897,
          41.46582392749849
        ]
      }
    },
    {
      "type": "Feature",
      "properties": {
        "norad_id": 66549,
        "name": "SHIJIAN-28",
        "group": "last-30-days",
        "lat": -8.69273314790145,
        "lon": -122.65940155432303,
        "alt_km": 19462.705563393785,
        "timestamp": "2025-12-04T23:34:04.491339+00:00",
        "meta_object_name": "SHIJIAN-28",
        "meta_object_id": "2025-277A",
        "meta_epoch": "2025-11-30T18:06:43.124256",
        "meta_mean_motion": 2.28019775,
        "meta_eccentricity": 0.7300519,
        "meta_inclination": 14.4344,
        "meta_ra_of_asc_node": 275.4056,
        "meta_arg_of_pericenter": 179.5026,
        "meta_mean_anomaly": 182.358,
        "meta_ephemeris_type": 0,
        "meta_classification_type": "U",
        "meta_norad_cat_id": 66549,
        "meta_element_set_no": 999,
        "meta_rev_at_epoch": 4,
        "meta_bstar": 0.00062085,
        "meta_mean_motion_dot": 6.315e-05,
        "meta_mean_motion_ddot": 0,
        "tle_line1": "1 66549U 25277A   25334.75466579  .00006315  00000+0  62085-3 0  9997",
        "tle_line2": "2 66549  14.4344 275.4056 7300519 179.5026 182.3580  2.28019775    48"
      },
      "geometry": {
        "type": "Point",
        "coordinates": [
          -122.65940155432303,
          -8.69273314790145
        ]
      }
    },
    {
      "type": "Feature",
      "properties": {
        "norad_id": 66550,
        "name": "CZ-7A R/B",
        "group": "last-30-days",
        "lat": 4.540433047712002,
        "lon": -68.36422149382035,
        "alt_km": 30132.532566589736,
        "timestamp": "2025-12-04T23:34:04.491351+00:00",
        "meta_object_name": "CZ-7A R/B",
        "meta_object_id": "2025-277B",
        "meta_epoch": "2025-12-01T03:57:29.558880",
        "meta_mean_motion": 2.40161271,
        "meta_eccentricity": 0.72362879,
        "meta_inclination": 14.4278,
        "meta_ra_of_asc_node": 275.378,
        "meta_arg_of_pericenter": 178.5774,
        "meta_mean_anomaly": 186.2906,
        "meta_ephemeris_type": 0,
        "meta_classification_type": "U",
        "meta_norad_cat_id": 66550,
        "meta_element_set_no": 999,
        "meta_rev_at_epoch": 5,
        "meta_bstar": 4.4603974e-05,
        "meta_mean_motion_dot": 0.00016399,
        "meta_mean_motion_ddot": -7.1945e-08,
        "tle_line1": "1 66550U 25277B   25335.16492545  .00016399 -71945-7  44604-4 0  9993",
        "tle_line2": "2 66550  14.4278 275.3780 7236287 178.5774 186.2906  2.40161271    57"
      },
      "geometry": {
        "type": "Point",
        "coordinates": [
          -68.36422149382035,
          4.540433047712002
        ]
      }
    }
  ]
}